{"type": "FeatureCollection", "features": [{"type": "Feature", "properties": {"norad_id": 50032, "name": "COSMOS 1408 DEB", "group": "cosmos-1408-debris", "lat": -16.06479950580764, "lon": 41.183298599597315, "alt_km": 445.07256382819196, "timestamp": "2025-12-27T12:55:14.775804+00:00", "meta": {"OBJECT_NAME": "COSMOS 1408 DEB", "OBJECT_ID": "1982-092RU", "EPOCH": "2025-12-27T03:40:10.220448", "MEAN_MOTION": 15.4583822, "ECCENTRICITY": 0.00167095, "INCLINATION": 82.5632, "RA_OF_ASC_NODE": 43.7342, "ARG_OF_PERICENTER": 155.8656, "MEAN_ANOMALY": 204.338, "EPHEMERIS_TYPE": 0, "CLASSIFICATION_TYPE": "U", "NORAD_CAT_ID": 50032, "ELEMENT_SET_NO": 999, "REV_AT_EPOCH": 22826, "BSTAR": 0.0001162626, "MEAN_MOTION_DOT": 5.708e-05, "MEAN_MOTION_DDOT": 0}, "tle": {"line1": "1 50032U 82092RU  25361.15289607  .00005708  00000+0  11626-3 0  9994", "line2": "2 50032  82.5632  43.7342 0016709 155.8656 204.3380 15.45838220228268"}}, "geometry": {"type": "Point", "coordinates": [41.183298599597315, -16.06479950580764]}}, {"type": "Feature", "properties": {"norad_id": 50058, "name": "COSMOS 1408 DEB", "group": "cosmos-1408-debris", "lat": 73.61834007484312, "lon": -152.35239243347965, "alt_km": 360.3038952635379, "timestamp": "2025-12-27T12:55:14.775824+00:00", "meta": {"OBJECT_NAME": "COSMOS 1408 DEB", "OBJECT_ID": "1982-092SW", "EPOCH": "2025-12-27T04:48:13.277952", "MEAN_MOTION": 15.64988053, "ECCENTRICITY": 0.00157357, "INCLINATION": 82.6117, "RA_OF_ASC_NODE": 54.1967, "ARG_OF_PERICENTER": 49.4559, "MEAN_ANOMALY": 310.8068, "EPHEMERIS_TYPE": 0, "CLASSIFICATION_TYPE": "U", "NORAD_CAT_ID": 50058, "ELEMENT_SET_NO": 999, "REV_AT_EPOCH": 23030, "BSTAR": 0.00033201877, "MEAN_MOTION_DOT": 0.0003285, "MEAN_MOTION_DDOT": 0}, "tle": {"line1": "1 50058U 82092SW  25361.20015368  .00032850  00000+0  33202-3 0  9991", "line2": "2 50058  82.6117  54.1967 0015735  49.4559 310.8068 15.64988053230307"}}, "geometry": {"type": "Point", "coordinates": [-152.35239243347965, 73.61834007484312]}}, {"type": "Feature", "properties": {"norad_id": 50404, "name": "COSMOS 1408 DEB", "group": "cosmos-1408-debris", "lat": 80.4971268280952, "lon": -35.0981180889943, "alt_km": 439.0164080163004, "timestamp": "2025-12-27T12:55:14.775838+00:00", "meta": {"OBJECT_NAME": "COSMOS 1408 DEB", "OBJECT_ID": "1982-092ADS", "EPOCH": "2025-12-26T23:49:41.077056", "MEAN_MOTION": 15.16159411, "ECCENTRICITY": 0.01656595, "INCLINATION": 82.2019, "RA_OF_ASC_NODE": 200.4168, "ARG_OF_PERICENTER": 149.7673, "MEAN_ANOMALY": 211.3249, "EPHEMERIS_TYPE": 0, "CLASSIFICATION_TYPE": "U", "NORAD_CAT_ID": 50404, "ELEMENT_SET_NO": 999, "REV_AT_EPOCH": 21409, "BSTAR": 0.0039408794, "MEAN_MOTION_DOT": 0.00109479, "MEAN_MOTION_DDOT": 0}, "tle": {"line1": "1 50404U 82092ADS 25360.99283654  .00109479  00000+0  39409-2 0  9992", "line2": "2 50404  82.2019 200.4168 0165659 149.7673 211.3249 15.16159411214099"}}, "geometry": {"type": "Point", "coordinates": [-35.0981180889943, 80.4971268280952]}}, {"type": "Feature", "properties": {"norad_id": 50621, "name": "COSMOS 1408 DEB", "group": "cosmos-1408-debris", "lat": 78.65775136795146, "lon": 99.35492993844414, "alt_km": 369.041783736413, "timestamp": "2025-12-27T12:55:14.775849+00:00", "meta": {"OBJECT_NAME": "COSMOS 1408 DEB", "OBJECT_ID": "1982-092ALR", "EPOCH": "2025-12-27T04:51:48.023424", "MEAN_MOTION": 15.57410266, "ECCENTRICITY": 0.00291312, "INCLINATION": 82.5697, "RA_OF_ASC_NODE": 59.1152, "ARG_OF_PERICENTER": 100.9036, "MEAN_ANOMALY": 259.5499, "EPHEMERIS_TYPE": 0, "CLASSIFICATION_TYPE": "U", "NORAD_CAT_ID": 50621, "ELEMENT_SET_NO": 999, "REV_AT_EPOCH": 22475, "BSTAR": 0.0003618337, "MEAN_MOTION_DOT": 0.00027119, "MEAN_MOTION_DDOT": 0}, "tle": {"line1": "1 50621U 82092ALR 25361.20263916  .00027119  00000+0  36183-3 0  9994", "line2": "2 50621  82.5697  59.1152 0029131 100.9036 259.5499 15.57410266224751"}}, "geometry": {"type": "Point", "coordinates": [99.35492993844414, 78.65775136795146]}}]}